NORAD_CAT_ID,OBJECT_NAME,OBJECT_TYPE,EPOCH,MEAN_MOTION,ECCENTRICITY,INCLINATION,RA_OF_ASC_NODE,ARG_OF_PERICENTER,MEAN_ANOMALY,BSTAR,MEAN_MOTION_DOT,MEAN_MOTION_DDOT,TLE_LINE0,TLE_LINE1,TLE_LINE2,SEMIMAJOR_AXIS,PERIOD,APOGEE,PERIGEE,DECAYED
53414.0,STARLINK-4304,PAYLOAD,2024-03-26 05:21:16,15.08823704,0.0001359,53.2154,76.991,78.6308,281.4837,-0.00024275,-4.147e-05,0.0,0 STARLINK-4304,1 53414U 22097AC  24086.22310707 -.00004147  00000-0 -24275-3 0  9990,2 53414  53.2154  76.9910 0001359  78.6308 281.4837 15.08823704 90450,6917.93,95.439,540.735,538.855,0.0
53414.0,STARLINK-4304,PAYLOAD,2024-03-26 08:32:02,15.08828685,0.0001422,53.2161,76.3985,86.8128,273.3027,-3.6566e-05,-8.7e-06,0.0,0 STARLINK-4304,1 53414U 22097AC  24086.35558916 -.00000870  00000-0 -36566-4 0  9996,2 53414  53.2161  76.3985 0001422  86.8128 273.3027 15.08828685 90955,6917.915,95.438,540.764,538.796,0.0
53414.0,STARLINK-4304,PAYLOAD,2024-03-26 16:28:58,15.0883096,0.0001394,53.2167,74.9128,89.5868,270.5284,0.0003308,4.979e-05,0.0,0 STARLINK-4304,1 53414U 22097AC  24086.68679136  .00004979  00000-0  33080-3 0  9999,2 53414  53.2167  74.9128 0001394  89.5868 270.5284 15.08830960 90529,6917.908,95.438,540.737,538.809,0.0
53414.0,STARLINK-4304,PAYLOAD,2024-03-26 22:50:31,15.08836321,0.0001343,53.2165,73.7232,92.733,267.3816,0.00059045,9.121e-05,0.0,0 STARLINK-4304,1 53414U 22097AC  24086.95175364  .00009121  00000-0  59045-3 0  9996,2 53414  53.2165  73.7232 0001343  92.7330 267.3816 15.08836321 91044,6917.892,95.438,540.686,538.828,0.0
53414.0,STARLINK-4304,PAYLOAD,2024-03-27 05:12:03,15.08854912,0.0001772,53.2165,72.532,106.6657,253.4529,0.00097482,0.00015267,0.0,0 STARLINK-4304,1 53414U 22097AC  24087.21670801  .00015267  00000-0  97482-3 0  9997,2 53414  53.2165  72.5320 0001772 106.6657 253.4529 15.08854912 90606,6917.835,95.437,540.926,538.474,0.0
53414.0,STARLINK-4304,PAYLOAD,2024-03-27 08:22:49,15.08875397,0.0001519,53.2172,71.9353,100.4928,259.6235,0.0015038,0.00023749,0.0,0 STARLINK-4304,1 53414U 22097AC  24087.34918236  .00023749  00000-0  15038-2 0  9998,2 53414  53.2172  71.9353 0001519 100.4928 259.6235 15.08875397 90629,6917.772,95.435,540.688,538.586,0.0
53414.0,STARLINK-4304,PAYLOAD,2024-03-27 16:19:44,15.08878437,0.0001323,53.2164,70.4475,98.5995,261.5147,0.0011118,0.00017469,0.0,0 STARLINK-4304,1 53414U 22097AC  24087.68037347  .00017469  00000-0  11118-2 0  9997,2 53414  53.2164  70.4475 0001323  98.5995 261.5147 15.08878437 90670,6917.763,95.435,540.543,538.713,0.0
53414.0,STARLINK-4304,PAYLOAD,2024-03-28 05:02:50,15.08842449,0.0001662,53.2158,68.0734,88.8783,271.2399,-0.00022291,-3.834e-05,0.0,0 STARLINK-4304,1 53414U 22097AC  24088.21030100 -.00003834  00000-0 -22291-3 0  9995,2 53414  53.2158  68.0734 0001662  88.8783 271.2399 15.08842449 90757,6917.873,95.437,540.888,538.588,0.0
53414.0,STARLINK-4304,PAYLOAD,2024-03-28 08:13:36,15.08848212,0.0001739,53.2162,67.4782,90.2969,269.8222,-1.9854e-05,-6.04e-06,0.0,0 STARLINK-4304,1 53414U 22097AC  24088.34277969 -.00000604  00000-0 -19854-4 0  9999,2 53414  53.2162  67.4782 0001739  90.2969 269.8222 15.08848212 91254,6917.855,95.437,540.923,538.517,0.0
53414.0,STARLINK-4304,PAYLOAD,2024-03-28 16:10:31,15.08848458,0.0001897,53.2165,65.9914,89.4673,270.6537,0.00066101,0.0001025,0.0,0 STARLINK-4304,1 53414U 22097AC  24088.67397961  .00010250  00000-0  66101-3 0  9992,2 53414  53.2165  65.9914 0001897  89.4673 270.6537 15.08848458 90827,6917.855,95.437,541.032,538.407,0.0
53414.0,STARLINK-4304,PAYLOAD,2024-03-29 04:53:37,15.08829931,0.0002067,53.2196,63.6122,100.7956,259.3269,-0.00026074,-4.434e-05,0.0,0 STARLINK-4304,1 53414U 22097AC  24089.20390783 -.00004434  00000-0 -26074-3 0  9991,2 53414  53.2196  63.6122 0002067 100.7956 259.3269 15.08829931 90908,6917.911,95.438,541.206,538.346,0.0
53414.0,STARLINK-4304,PAYLOAD,2024-03-29 08:04:23,15.08832867,0.0001954,53.2184,63.0183,110.0499,250.0703,-0.00018499,-3.231e-05,0.0,0 STARLINK-4304,1 53414U 22097AC  24089.33638772 -.00003231  00000-0 -18499-3 0  9994,2 53414  53.2184  63.0183 0001954 110.0499 250.0703 15.08832867 91405,6917.902,95.438,541.119,538.415,0.0
53414.0,STARLINK-4304,PAYLOAD,2024-03-30 04:44:24,15.08856479,0.0001876,53.2184,59.154,92.6036,267.517,0.00057817,8.93e-05,0.0,0 STARLINK-4304,1 53414U 22097AC  24090.19750422  .00008930  00000-0  57817-3 0  9993,2 53414  53.2184  59.1540 0001876  92.6036 267.5170 15.08856479 91050,6917.83,95.437,540.993,538.397,0.0
53414.0,STARLINK-4304,PAYLOAD,2024-03-30 07:55:10,15.08861888,0.0001843,53.2182,58.5584,91.0944,269.026,0.0009653,0.00015117,0.0,0 STARLINK-4304,1 53414U 22097AC  24090.32998417  .00015117  00000-0  96530-3 0  9996,2 53414  53.2182  58.5584 0001843  91.0944 269.0260 15.08861888 91556,6917.813,95.436,540.953,538.404,0.0
53414.0,STARLINK-4304,PAYLOAD,2024-03-30 22:13:38,15.08857073,0.0002545,53.2191,55.8878,108.8658,251.2611,3.5958e-05,2.84e-06,0.0,0 STARLINK-4304,1 53414U 22097AC  24090.92614074  .00000284  00000-0  35958-4 0  9993,2 53414  53.2191  55.8878 0002545 108.8658 251.2611 15.08857073 91645,6917.828,95.436,541.454,537.933,0.0
53414.0,STARLINK-4304,PAYLOAD,2024-03-31 04:35:11,15.08853686,0.0001614,53.2186,54.6943,98.4206,261.6969,0.00058204,8.991e-05,0.0,0 STARLINK-4304,1 53414U 22097AC  24091.19110237  .00008991  00000-0  58204-3 0  9996,2 53414  53.2186  54.6943 0001614  98.4206 261.6969 15.08853686 91207,6917.839,95.437,540.82,538.587,0.0
53414.0,STARLINK-4304,PAYLOAD,2024-03-31 14:07:29,15.08853749,0.000142,53.2179,52.9094,97.9733,262.1421,0.0014242,0.00022459,0.0,0 STARLINK-4304,1 53414U 22097AC  24091.58854163  .00022459  00000-0  14242-2 0  9990,2 53414  53.2179  52.9094 0001420  97.9733 262.1421 15.08853749 91749,6917.838,95.437,540.686,538.721,0.0
53414.0,STARLINK-4304,PAYLOAD,2024-04-01 04:25:58,15.08837295,0.0001751,53.2195,50.237,108.752,251.3662,0.00022843,3.349e-05,0.0,0 STARLINK-4304,1 53414U 22097AC  24092.18470520  .00003349  00000-0  22843-3 0  9992,2 53414  53.2195  50.2370 0001751 108.7520 251.3662 15.08837295 91359,6917.889,95.438,540.965,538.542,0.0
53414.0,STARLINK-4304,PAYLOAD,2024-04-01 13:58:16,15.08854087,0.0001601,53.219,48.4492,92.0694,268.0481,0.00029529,4.416e-05,0.0,0 STARLINK-4304,1 53414U 22097AC  24092.58213807  .00004416  00000-0  29529-3 0  9993,2 53414  53.2190  48.4492 0001601  92.0694 268.0481 15.08854087 91890,6917.837,95.437,540.81,538.595,0.0
53414.0,STARLINK-4304,PAYLOAD,2024-04-02 02:41:22,15.08833199,0.0001837,53.2199,46.0727,90.5609,269.5594,3.3617e-05,2.47e-06,0.0,0 STARLINK-4304,1 53414U 22097AC  24093.11206940  .00000247  00000-0  33617-4 0  9995,2 53414  53.2199  46.0727 0001837  90.5609 269.5594 15.08833199 91492,6917.901,95.438,541.037,538.495,0.0
53414.0,STARLINK-4304,PAYLOAD,2024-04-02 13:49:04,15.088449,0.0001603,53.219,43.9888,88.323,271.7946,0.00010617,1.402e-05,0.0,0 STARLINK-4304,1 53414U 22097AC  24093.57574243  .00001402  00000-0  10617-3 0  9997,2 53414  53.2190  43.9888 0001603  88.3230 271.7946 15.08844900 92043,6917.865,95.437,540.839,538.621,0.0
53414.0,STARLINK-4304,PAYLOAD,2024-04-02 20:10:36,15.08843286,0.0001847,53.2194,42.8004,86.8513,273.269,8.3206e-05,1.036e-05,0.0,0 STARLINK-4304,1 53414U 22097AC  24093.84070427  .00001036  00000-0  83206-4 0  9990,2 53414  53.2194  42.8004 0001847  86.8513 273.2690 15.08843286 91602,6917.87,95.437,541.013,538.458,0.0
53414.0,STARLINK-4304,PAYLOAD,2024-04-03 04:07:33,15.0883125,0.0001534,53.2172,41.3141,99.4088,260.7077,0.00010364,1.361e-05,0.0,0 STARLINK-4304,1 53414U 22097AC  24094.17191107  .00001361  00000-0  10364-3 0  9991,2 53414  53.2172  41.3141 0001534  99.4088 260.7077 15.08831250 91657,6917.907,95.438,540.833,538.711,0.0
53414.0,STARLINK-4304,PAYLOAD,2024-04-04 02:22:56,15.08840121,0.00014,53.219,37.15,88.3126,271.8027,0.00015251,2.14e-05,0.0,0 STARLINK-4304,1 53414U 22097AC  24095.09926782  .00002140  00000-0  15251-3 0  9994,2 53414  53.2190  37.1500 0001400  88.3126 271.8027 15.08840121 91791,6917.88,95.438,540.714,538.777,0.0
53414.0,STARLINK-4304,PAYLOAD,2024-04-04 13:30:38,15.08845708,0.0001315,53.2186,35.0684,89.5707,270.5436,0.00010488,1.382e-05,0.0,0 STARLINK-4304,1 53414U 22097AC  24095.56294442  .00001382  00000-0  10488-3 0  9991,2 53414  53.2186  35.0684 0001315  89.5707 270.5436 15.08845708 92347,6917.863,95.437,540.638,538.818,0.0
53414.0,STARLINK-4304,PAYLOAD,2024-04-05 05:24:29,15.08843514,0.0001444,53.2189,32.0935,101.4469,258.6686,0.0001315,1.806e-05,0.0,0 STARLINK-4304,1 53414U 22097AC  24096.22534529  .00001806  00000-0  13150-3 0  9998,2 53414  53.2189  32.0935 0001444 101.4469 258.6686 15.08843514 91962,6917.87,95.437,540.734,538.736,0.0
53414.0,STARLINK-4304,PAYLOAD,2024-04-06 02:04:30,15.08841019,0.0001333,53.2182,28.2285,92.9691,267.1453,4.6775e-05,4.57e-06,0.0,0 STARLINK-4304,1 53414U 22097AC  24097.08646731  .00000457  00000-0  46775-4 0  9993,2 53414  53.2182  28.2285 0001333  92.9691 267.1453 15.08841019 92098,6917.877,95.437,540.664,538.82,0.0
53414.0,STARLINK-4304,PAYLOAD,2024-04-06 22:44:32,15.08833877,0.0001335,53.2183,24.3603,95.6808,264.4336,1.5633e-06,-2.63e-06,0.0,0 STARLINK-4304,1 53414U 22097AC  24097.94759326 -.00000263  00000-0  15633-5 0  9999,2 53414  53.2183  24.3603 0001335  95.6808 264.4336 15.08833877 92703,6917.899,95.438,540.688,538.841,0.0
53414.0,STARLINK-4304,PAYLOAD,2024-04-07 11:27:36,15.08844983,0.0001298,53.2197,21.9826,95.2581,264.856,4.1741e-05,3.77e-06,0.0,0 STARLINK-4304,1 53414U 22097AC  24098.47750547  .00000377  00000-0  41741-4 0  9997,2 53414  53.2197  21.9826 0001298  95.2581 264.8560 15.08844983 92781,6917.865,95.437,540.628,538.832,0.0
53414.0,STARLINK-4304,PAYLOAD,2024-04-07 19:24:33,15.08832103,0.0001357,53.2207,20.5009,101.648,258.4664,3.3577e-05,2.46e-06,0.0,0 STARLINK-4304,1 53414U 22097AC  24098.80871548  .00000246  00000-0  33577-4 0  9992,2 53414  53.2207  20.5009 0001357 101.6480 258.4664 15.08832103 92355,6917.905,95.438,540.708,538.831,0.0
